{
  "type": "FeatureCollection",
  "features": [
    {
      "type": "Feature",
      "properties": {
        "norad_id": 41581,
        "name": "INTELSAT 31 (IS-31)",
        "group": "intelsat",
        "lat": 0.017737470092046067,
        "lon": 57.82243539947958,
        "alt_km": 35793.573343083845,
        "timestamp": "2025-12-25T03:55:55.975109+00:00",
        "meta_object_name": "INTELSAT 31 (IS-31)",
        "meta_object_id": "2016-035A",
        "meta_epoch": "2025-12-23T19:31:44.703840",
        "meta_mean_motion": 1.00269658,
        "meta_eccentricity": 0.0001926,
        "meta_inclination": 0.0283,
        "meta_ra_of_asc_node": 262.055,
        "meta_arg_of_pericenter": 303.365,
        "meta_mean_anomaly": 85.0534,
        "meta_ephemeris_type": 0,
        "meta_classification_type": "U",
        "meta_norad_cat_id": 41581,
        "meta_element_set_no": 999,
        "meta_rev_at_epoch": 3492,
        "meta_bstar": 0,
        "meta_mean_motion_dot": -1.29e-06,
        "meta_mean_motion_ddot": 0,
        "tle_line1": "1 41581U 16035A   25357.81371185 -.00000129  00000+0  00000+0 0  9991",
        "tle_line2": "2 41581   0.0283 262.0550 0001926 303.3650  85.0534  1.00269658 34922"
      },
      "geometry": {
        "type": "Point",
        "coordinates": [
          57.82243539947958,
          0.017737470092046067
        ]
      }
    },
    {
      "type": "Feature",
      "properties": {
        "norad_id": 41747,
        "name": "INTELSAT 36 (IS-36)",
        "group": "intelsat",
        "lat": -0.015582910162686911,
        "lon": -138.61690136079577,
        "alt_km": 35787.42080561769,
        "timestamp": "2025-12-25T03:55:55.975121+00:00",
        "meta_object_name": "INTELSAT 36 (IS-36)",
        "meta_object_id": "2016-053A",
        "meta_epoch": "2025-12-24T20:06:06.128352",
        "meta_mean_motion": 1.00271083,
        "meta_eccentricity": 0.0001178,
        "meta_inclination": 0.011,
        "meta_ra_of_asc_node": 13.055,
        "meta_arg_of_pericenter": 311.9516,
        "meta_mean_anomaly": 138.6177,
        "meta_ephemeris_type": 0,
        "meta_classification_type": "U",
        "meta_norad_cat_id": 41747,
        "meta_element_set_no": 999,
        "meta_rev_at_epoch": 3420,
        "meta_bstar": 0,
        "meta_mean_motion_dot": -3e-08,
        "meta_mean_motion_ddot": 0,
        "tle_line1": "1 41747U 16053A   25358.83757093 -.00000003  00000+0  00000+0 0  9995",
        "tle_line2": "2 41747   0.0110  13.0550 0001178 311.9516 138.6177  1.00271083 34208"
      },
      "geometry": {
        "type": "Point",
        "coordinates": [
          -138.61690136079577,
          -0.015582910162686911
        ]
      }
    },
    {
      "type": "Feature",
      "properties": {
        "norad_id": 41945,
        "name": "INTELSAT 32E (IS-32E)",
        "group": "intelsat",
        "lat": 0.03200189138002666,
        "lon": 109.73427693064846,
        "alt_km": 35786.44344938445,
        "timestamp": "2025-12-25T03:55:55.975132+00:00",
        "meta_object_name": "INTELSAT 32E (IS-32E)",
        "meta_object_id": "2017-007B",
        "meta_epoch": "2025-12-24T12:53:27.268224",
        "meta_mean_motion": 1.00269336,
        "meta_eccentricity": 5.65e-05,
        "meta_inclination": 0.0234,
        "meta_ra_of_asc_node": 68.585,
        "meta_arg_of_pericenter": 320.3284,
        "meta_mean_anomaly": 214.5894,
        "meta_ephemeris_type": 0,
        "meta_classification_type": "U",
        "meta_norad_cat_id": 41945,
        "meta_element_set_no": 999,
        "meta_rev_at_epoch": 3247,
        "meta_bstar": 0,
        "meta_mean_motion_dot": -2.48e-06,
        "meta_mean_motion_ddot": 0,
        "tle_line1": "1 41945U 17007B   25358.53712116 -.00000248  00000+0  00000+0 0  9990",
        "tle_line2": "2 41945   0.0234  68.5850 0000565 320.3284 214.5894  1.00269336 32473"
      },
      "geometry": {
        "type": "Point",
        "coordinates": [
          109.73427693064846,
          0.03200189138002666
        ]
      }
    },
    {
      "type": "Feature",
      "properties": {
        "norad_id": 42818,
        "name": "INTELSAT 35E (IS-35E)",
        "group": "intelsat",
        "lat": 0.0430177076083791,
        "lon": 118.36970940503299,
        "alt_km": 35795.74824136411,
        "timestamp": "2025-12-25T03:55:55.975144+00:00",
        "meta_object_name": "INTELSAT 35E (IS-35E)",
        "meta_object_id": "2017-041A",
        "meta_epoch": "2025-12-24T04:16:38.864640",
        "meta_mean_motion": 1.00266954,
        "meta_eccentricity": 0.0002055,
        "meta_inclination": 0.0217,
        "meta_ra_of_asc_node": 27.8846,
        "meta_arg_of_pericenter": 251.5822,
        "meta_mean_anomaly": 203.1418,
        "meta_ephemeris_type": 0,
        "meta_classification_type": "U",
        "meta_norad_cat_id": 42818,
        "meta_element_set_no": 999,
        "meta_rev_at_epoch": 3106,
        "meta_bstar": 0,
        "meta_mean_motion_dot": 0,
        "meta_mean_motion_ddot": 0,
        "tle_line1": "1 42818U 17041A   25358.17822760  .00000000  00000+0  00000+0 0  9990",
        "tle_line2": "2 42818   0.0217  27.8846 0002055 251.5822 203.1418  1.00266954 31069"
      },
      "geometry": {
        "type": "Point",
        "coordinates": [
          118.36970940503299,
          0.0430177076083791
        ]
      }
    },
    {
      "type": "Feature",
      "properties": {
        "norad_id": 42950,
        "name": "INTELSAT 37E (IS-37E)",
        "group": "intelsat",
        "lat": 0.03701574501069103,
        "lon": 134.87717654596534,
        "alt_km": 35794.60271951577,
        "timestamp": "2025-12-25T03:55:55.975155+00:00",
        "meta_object_name": "INTELSAT 37E (IS-37E)",
        "meta_object_id": "2017-059A",
        "meta_epoch": "2025-12-24T14:43:24.239136",
        "meta_mean_motion": 1.0026987,
        "meta_eccentricity": 0.0003098,
        "meta_inclination": 0.0202,
        "meta_ra_of_asc_node": 20.7984,
        "meta_arg_of_pericenter": 241.3919,
        "meta_mean_anomaly": 34.0508,
        "meta_ephemeris_type": 0,
        "meta_classification_type": "U",
        "meta_norad_cat_id": 42950,
        "meta_element_set_no": 999,
        "meta_rev_at_epoch": 3031,
        "meta_bstar": 0,
        "meta_mean_motion_dot": 0,
        "meta_mean_motion_ddot": 0,
        "tle_line1": "1 42950U 17059A   25358.61347499  .00000000  00000+0  00000+0 0  9996",
        "tle_line2": "2 42950   0.0202  20.7984 0003098 241.3919  34.0508  1.00269870 30315"
      },
      "geometry": {
        "type": "Point",
        "coordinates": [
          134.87717654596534,
          0.03701574501069103
        ]
      }
    },
    {
      "type": "Feature",
      "properties": {
        "norad_id": 43632,
        "name": "AZERSPACE 2 (IS-38)",
        "group": "intelsat",
        "lat": -0.0024040521529662597,
        "lon": -162.00724376901798,
        "alt_km": 35785.24027080495,
        "timestamp": "2025-12-25T03:55:55.975167+00:00",
        "meta_object_name": "AZERSPACE 2 (IS-38)",
        "meta_object_id": "2018-074A",
        "meta_epoch": "2025-12-24T20:37:38.640864",
        "meta_mean_motion": 1.00270809,
        "meta_eccentricity": 0.0001329,
        "meta_inclination": 0.0179,
        "meta_ra_of_asc_node": 15.9221,
        "meta_arg_of_pericenter": 261.013,
        "meta_mean_anomaly": 171.208,
        "meta_ephemeris_type": 0,
        "meta_classification_type": "U",
        "meta_norad_cat_id": 43632,
        "meta_element_set_no": 999,
        "meta_rev_at_epoch": 2670,
        "meta_bstar": 0,
        "meta_mean_motion_dot": 1.58e-06,
        "meta_mean_motion_ddot": 0,
        "tle_line1": "1 43632U 18074A   25358.85947501  .00000158  00000+0  00000+0 0  9992",
        "tle_line2": "2 43632   0.0179  15.9221 0001329 261.0130 171.2080  1.00270809 26706"
      },
      "geometry": {
        "type": "Point",
        "coordinates": [
          -162.00724376901798,
          -0.0024040521529662597
        ]
      }
    },
    {
      "type": "Feature",
      "properties": {
        "norad_id": 43633,
        "name": "HORIZONS-3E",
        "group": "intelsat",
        "lat": 0.006694424459429655,
        "lon": -38.10820705179881,
        "alt_km": 35784.129794588735,
        "timestamp": "2025-12-25T03:55:55.975193+00:00",
        "meta_object_name": "HORIZONS-3E",
        "meta_object_id": "2018-074B",
        "meta_epoch": "2025-12-24T12:50:38.700960",
        "meta_mean_motion": 1.0026891,
        "meta_eccentricity": 6.5e-05,
        "meta_inclination": 0.0125,
        "meta_ra_of_asc_node": 213.1009,
        "meta_arg_of_pericenter": 109.3498,
        "meta_mean_anomaly": 132.5124,
        "meta_ephemeris_type": 0,
        "meta_classification_type": "U",
        "meta_norad_cat_id": 43633,
        "meta_element_set_no": 999,
        "meta_rev_at_epoch": 2659,
        "meta_bstar": 0,
        "meta_mean_motion_dot": 0,
        "meta_mean_motion_ddot": 0,
        "tle_line1": "1 43633U 18074B   25358.53517015  .00000000  00000+0  00000+0 0  9997",
        "tle_line2": "2 43633   0.0125 213.1009 0000650 109.3498 132.5124  1.00268910 26597"
      },
      "geometry": {
        "type": "Point",
        "coordinates": [
          -38.10820705179881,
          0.006694424459429655
        ]
      }
    }
  ]
}